[{"OBJECT_NAME":"JILIN-1 GAOFEN 03D47","OBJECT_ID":"2022-167L","EPOCH":"2026-03-09T22:56:46.924224","MEAN_MOTION":15.31686941,"ECCENTRICITY":0.00089304,"INCLINATION":97.6835,"RA_OF_ASC_NODE":234.6581,"ARG_OF_PERICENTER":110.4031,"MEAN_ANOMALY":249.8169,"EPHEMERIS_TYPE":0,"CLASSIFICATION_TYPE":"U","NORAD_CAT_ID":54692,"ELEMENT_SET_NO":999,"REV_AT_EPOCH":18014,"BSTAR":0.00047294748,"MEAN_MOTION_DOT":0.00014417,"MEAN_MOTION_DDOT":0},{"OBJECT_NAME":"STARLINK-32543","OBJECT_ID":"2025-063B","EPOCH":"2026-03-09T07:43:30.562464","MEAN_MOTION":15.3021256,"ECCENTRICITY":0.00014454,"INCLINATION":53.1595,"RA_OF_ASC_NODE":51.307,"ARG_OF_PERICENTER":92.2104,"MEAN_ANOMALY":267.9062,"EPHEMERIS_TYPE":0,"CLASSIFICATION_TYPE":"U","NORAD_CAT_ID":63364,"ELEMENT_SET_NO":999,"REV_AT_EPOCH":5473,"BSTAR":0.00079632037,"MEAN_MOTION_DOT":0.00023309,"MEAN_MOTION_DDOT":0}]
